OBJECT_NAME,OBJECT_ID,EPOCH,MEAN_MOTION,ECCENTRICITY,INCLINATION,RA_OF_ASC_NODE,ARG_OF_PERICENTER,MEAN_ANOMALY,EPHEMERIS_TYPE,CLASSIFICATION_TYPE,NORAD_CAT_ID,ELEMENT_SET_NO,REV_AT_EPOCH,BSTAR,MEAN_MOTION_DOT,MEAN_MOTION_DDOT
STARLINK-4570,2022-105AU,2026-06-12T04:39:24.162624,15.05653543,.00019359,97.3710,42.4311,93.4173,266.7275,0,U,53690,999,20745,-.47068179E-4,-.737E-5,0
STARLINK-4560,2022-105AV,2026-06-12T05:57:06.649632,15.05654369,.00021388,97.3715,43.5777,82.0635,278.0835,0,U,53691,999,20753,-.93348247E-4,-.1404E-4,0
STARLINK-4572,2022-105AW,2026-06-12T05:46:54.560064,15.26518354,.00018624,97.6091,51.5830,95.3593,264.7857,0,U,53692,999,20795,.17354347E-2,.45483E-3,0
STARLINK-4566,2022-105AX,2026-06-12T04:53:19.373280,15.05649308,.0002359,97.3713,43.6285,94.3625,265.7872,0,U,53693,999,20753,.29080661E-4,.362E-5,0
STARLINK-4725,2022-107A,2026-06-12T18:34:50.841984,15.08837164,.0001252,53.1595,176.8265,86.7116,273.4019,0,U,53700,999,20921,.52636E-4,.55E-5,0
STARLINK-4711,2022-107B,2026-06-12T18:29:32.603136,15.08836604,.0001253,53.1597,176.8045,85.5368,274.5766,0,U,53701,999,20921,.50911E-4,.522E-5,0
STARLINK-4724,2022-107C,2026-06-12T06:22:57.470016,15.08844692,.00011094,53.1599,164.3855,93.0581,267.0538,0,U,53702,999,20937,.75578336E-4,.915E-5,0
STARLINK-4731,2022-107D,2026-06-12T07:43:04.052352,15.08832981,.00012671,53.1600,178.9793,77.6711,282.4422,0,U,53703,999,20914,.31016305E-4,.206E-5,0
STARLINK-4714,2022-107E,2026-06-12T18:24:21.807648,15.08834901,.0001325,53.1600,177.4890,86.2612,273.8531,0,U,53704,999,20904,.63368E-4,.721E-5,0
STARLINK-4717,2022-107F,2026-06-12T07:11:21.784416,15.08832849,.00012982,53.1591,179.5506,82.5320,277.5819,0,U,53705,999,20913,.48392666E-4,.482E-5,0
STARLINK-4716,2022-107G,2026-06-12T06:50:08.318400,15.08830545,.0001146,53.1578,179.4607,79.7478,280.3642,0,U,53706,999,20913,.7213236E-5,-.173E-5,0
STARLINK-4667,2022-107H,2026-06-12T06:38:51.618912,15.08835172,.00012016,53.1601,164.4493,82.5629,277.5499,0,U,53707,999,20934,.7339927E-5,-.171E-5,0
STARLINK-4694,2022-107J,2026-06-12T06:17:35.948832,15.08864944,.00014521,53.1592,164.3697,121.3737,238.7397,0,U,53708,999,20934,.30461519E-3,.4567E-4,0
STARLINK-4685,2022-107K,2026-06-12T18:42:10.287072,15.08836600,.0001312,53.1597,181.8715,70.3380,289.7753,0,U,53709,999,20883,.67788E-4,.791E-5,0
STARLINK-4627,2022-107M,2026-06-12T18:58:03.800064,15.08836983,.0001209,53.1598,181.9322,83.6007,276.5122,0,U,53711,999,20883,.2588E-4,.124E-5,0
STARLINK-4683,2022-107N,2026-06-12T07:13:13.879776,15.08831969,.00011912,53.1580,183.8738,86.2586,273.8542,0,U,53712,999,20878,.27327749E-4,.147E-5,0
STARLINK-4686,2022-107R,2026-06-12T18:49:26.809248,15.08831466,.0000891,53.1593,186.8718,72.9903,287.1186,0,U,53715,999,20877,.7318E-4,.877E-5,0
STARLINK-4699,2022-107S,2026-06-12T18:44:07.793664,15.08836600,.0001249,53.1585,186.8469,77.4351,282.6780,0,U,53716,999,20876,.76396E-4,.928E-5,0
STARLINK-4695,2022-107U,2026-06-12T18:29:43.209600,15.08831677,.000116,53.1588,187.4807,81.8476,278.2647,0,U,53718,999,20875,.23465E-4,.85E-6,0
STARLINK-4644,2022-107V,2026-06-12T05:49:08.428224,15.08827782,.00010258,53.1585,159.2143,80.3491,279.7616,0,U,53719,999,20911,.44338776E-4,.418E-5,0
STARLINK-4642,2022-107W,2026-06-12T18:54:44.870112,15.08832028,.0001182,53.1598,186.8942,77.1482,282.9641,0,U,53720,999,20877,.39111E-4,.334E-5,0
STARLINK-4707,2022-107X,2026-06-12T19:05:21.674400,15.08828157,.0001375,53.1599,186.9418,90.3444,269.7705,0,U,53721,999,20877,.61216E-4,.686E-5,0
STARLINK-4700,2022-107Y,2026-06-12T19:15:58.210848,15.08832839,.0001248,53.1599,186.9809,88.3882,271.7252,0,U,53722,999,20876,.13595E-4,-.72E-6,0
STARLINK-4705,2022-107Z,2026-06-12T18:38:50.024832,15.08832498,.0001182,53.1586,186.8325,86.1737,273.9390,0,U,53723,999,20891,.44561E-4,.421E-5,0
STARLINK-4663,2022-107AA,2026-06-12T19:00:03.160800,15.08836581,.000146,53.1602,186.9186,84.8532,275.2626,0,U,53724,999,20877,-.56916E-4,-.1194E-4,0
STARLINK-4697,2022-107AC,2026-06-12T19:10:40.360800,15.08846344,.0001168,53.1600,186.9622,92.6687,267.4438,0,U,53726,999,20877,.70044E-4,.827E-5,0
STARLINK-4701,2022-107AD,2026-06-12T06:43:30.814464,15.08836491,.00022887,53.1598,189.4115,105.7818,254.3426,0,U,53727,999,20883,.4447202E-4,.419E-5,0
STARLINK-4640,2022-107AE,2026-06-12T06:38:11.313312,15.08836191,.00012184,53.1601,189.3900,88.3170,271.7961,0,U,53728,999,20883,.27811552E-4,.155E-5,0
STARLINK-4651,2022-107AF,2026-06-12T06:59:24.947808,15.08831134,.00012188,53.1591,189.4831,80.9173,279.1956,0,U,53729,999,20886,.15282121E-4,-.45E-6,0
STARLINK-4641,2022-107AG,2026-06-12T06:48:49.500864,15.08833962,.00012876,53.1600,189.4361,81.3865,278.7273,0,U,53730,999,20883,.63247958E-4,.719E-5,0
