STARLINK-4570           
1 53690U 22105AU  26163.19402966 -.00000737  00000+0 -47068-4 0  9995
2 53690  97.3710  42.4311 0001935  93.4173 266.7275 15.05653543207452
STARLINK-4560           
1 53691U 22105AV  26163.24799363 -.00001404  00000+0 -93348-4 0  9996
2 53691  97.3715  43.5777 0002138  82.0635 278.0835 15.05654369207533
STARLINK-4572           
1 53692U 22105AW  26163.24090926  .00045483  00000+0  17354-2 0  9990
2 53692  97.6091  51.5830 0001862  95.3593 264.7857 15.26518354207954
STARLINK-4566           
1 53693U 22105AX  26163.20369645  .00000362  00000+0  29081-4 0  9993
2 53693  97.3713  43.6285 0002359  94.3625 265.7872 15.05649308207539
STARLINK-4725           
1 53700U 22107A   26163.77419956  .00000550  00000+0  52636-4 0  9998
2 53700  53.1595 176.8265 0001252  86.7116 273.4019 15.08837164209212
STARLINK-4711           
1 53701U 22107B   26163.77051624  .00000522  00000+0  50911-4 0  9996
2 53701  53.1597 176.8045 0001253  85.5368 274.5766 15.08836604209217
STARLINK-4724           
1 53702U 22107C   26163.26594294  .00000915  00000+0  75578-4 0  9998
2 53702  53.1599 164.3855 0001109  93.0581 267.0538 15.08844692209379
STARLINK-4731           
1 53703U 22107D   26163.32157468  .00000206  00000+0  31016-4 0  9996
2 53703  53.1600 178.9793 0001267  77.6711 282.4422 15.08832981209149
STARLINK-4714           
1 53704U 22107E   26163.76691907  .00000721  00000+0  63368-4 0  9993
2 53704  53.1600 177.4890 0001325  86.2612 273.8531 15.08834901209041
STARLINK-4717           
1 53705U 22107F   26163.29955769  .00000482  00000+0  48393-4 0  9996
2 53705  53.1591 179.5506 0001298  82.5320 277.5819 15.08832849209131
STARLINK-4716           
1 53706U 22107G   26163.28481850 -.00000173  00000+0  72132-5 0  9998
2 53706  53.1578 179.4607 0001146  79.7478 280.3642 15.08830545209139
STARLINK-4667           
1 53707U 22107H   26163.27698633 -.00000171  00000+0  73399-5 0  9991
2 53707  53.1601 164.4493 0001201  82.5629 277.5499 15.08835172209348
STARLINK-4694           
1 53708U 22107J   26163.26222163  .00004567  00000+0  30462-3 0  9996
2 53708  53.1592 164.3697 0001452 121.3737 238.7397 15.08864944209348
STARLINK-4685           
1 53709U 22107K   26163.77928573  .00000791  00000+0  67788-4 0  9998
2 53709  53.1597 181.8715 0001312  70.3380 289.7753 15.08836600208834
STARLINK-4627           
1 53711U 22107M   26163.79032176  .00000124  00000+0  25880-4 0  9995
2 53711  53.1598 181.9322 0001209  83.6007 276.5122 15.08836983208839
STARLINK-4683           
1 53712U 22107N   26163.30085509  .00000147  00000+0  27328-4 0  9995
2 53712  53.1580 183.8738 0001191  86.2586 273.8542 15.08831969208783
STARLINK-4686           
1 53715U 22107R   26163.78433807  .00000877  00000+0  73180-4 0  9995
2 53715  53.1593 186.8718 0000891  72.9903 287.1186 15.08831466208775
STARLINK-4699           
1 53716U 22107S   26163.78064576  .00000928  00000+0  76396-4 0  9998
2 53716  53.1585 186.8469 0001249  77.4351 282.6780 15.08836600208769
STARLINK-4695           
1 53718U 22107U   26163.77063900  .00000085  00000+0  23465-4 0  9992
2 53718  53.1588 187.4807 0001160  81.8476 278.2647 15.08831677208757
STARLINK-4644           
1 53719U 22107V   26163.24245866  .00000418  00000+0  44339-4 0  9991
2 53719  53.1585 159.2143 0001025  80.3491 279.7616 15.08827782209111
STARLINK-4642           
1 53720U 22107W   26163.78801933  .00000334  00000+0  39111-4 0  9994
2 53720  53.1598 186.8942 0001182  77.1482 282.9641 15.08832028208772
STARLINK-4707           
1 53721U 22107X   26163.79538975  .00000686  00000+0  61216-4 0  9990
2 53721  53.1599 186.9418 0001375  90.3444 269.7705 15.08828157208774
STARLINK-4700           
1 53722U 22107Y   26163.80275707 -.00000072  00000+0  13595-4 0  9991
2 53722  53.1599 186.9809 0001248  88.3882 271.7252 15.08832839208762
STARLINK-4705           
1 53723U 22107Z   26163.77696788  .00000421  00000+0  44561-4 0  9998
2 53723  53.1586 186.8325 0001182  86.1737 273.9390 15.08832498208918
STARLINK-4663           
1 53724U 22107AA  26163.79170325 -.00001194  00000+0 -56916-4 0  9992
2 53724  53.1602 186.9186 0001460  84.8532 275.2626 15.08836581208779
STARLINK-4697           
1 53726U 22107AC  26163.79907825  .00000827  00000+0  70044-4 0  9995
2 53726  53.1600 186.9622 0001168  92.6687 267.4438 15.08846344208779
STARLINK-4701           
1 53727U 22107AD  26163.28021776  .00000419  00000+0  44472-4 0  9995
2 53727  53.1598 189.4115 0002288 105.7818 254.3426 15.08836491208838
STARLINK-4640           
1 53728U 22107AE  26163.27651983  .00000155  00000+0  27812-4 0  9990
2 53728  53.1601 189.3900 0001218  88.3170 271.7961 15.08836191208838
STARLINK-4651           
1 53729U 22107AF  26163.29126097 -.00000045  00000+0  15282-4 0  9993
2 53729  53.1591 189.4831 0001218  80.9173 279.1956 15.08831134208863
STARLINK-4641           
1 53730U 22107AG  26163.28390626  .00000719  00000+0  63248-4 0  9997
2 53730  53.1600 189.4361 0001287  81.3865 278.7273 15.08833962208838
